STARLINK-4590           
1 53606U 22104U   26068.69124645 -.00000371  00000+0 -51996-5 0  9995
2 53606  53.2171 234.2281 0001238  91.6865 268.4269 15.08834999195639
CHAMRAN-1               
1 61072U 24165B   26068.91010681  .00007263  00000+0  44320-3 0  9995
2 61072  64.0789   8.4365 0045019 310.8781  48.8437 15.10235792 81665
